SENTINEL-6              
1 46984U 20086A   23277.67413118 -.00000052  00000+0  39982-4 0  9991
2 46984  66.0444  24.0484 0007852 268.0081  92.0035 12.80929895133971
